{
"type": "FeatureCollection",
"name": "abstract_544_epa_echo_matches",
"crs": { "type": "name", "properties": { "name": "urn:ogc:def:crs:OGC:1.3:CRS84" } },
"features": [
{ "type": "Feature", "properties": { "frs_id": "TXR1548VP", "facility_name": "CANYONS FORTIFICATION", "program_system": "cwa_rest_services", "index_right": 0, "id": 544, "survey_name": "Abstract 544 Johnson County" }, "geometry": { "type": "Point", "coordinates": [ -97.323516, 32.47 ] } },
{ "type": "Feature", "properties": { "frs_id": "TXR1569VR", "facility_name": "CANYONS FORTIFICATION", "program_system": "cwa_rest_services", "index_right": 0, "id": 544, "survey_name": "Abstract 544 Johnson County" }, "geometry": { "type": "Point", "coordinates": [ -97.323516, 32.47 ] } },
{ "type": "Feature", "properties": { "frs_id": "TXG114136", "facility_name": "CANYONS PH 2 BP", "program_system": "cwa_rest_services", "index_right": 0, "id": 544, "survey_name": "Abstract 544 Johnson County" }, "geometry": { "type": "Point", "coordinates": [ -97.314686, 32.43 ] } },
{ "type": "Feature", "properties": { "frs_id": "TXR05BF97", "facility_name": "JOHNSON COUNTY REDI MIX", "program_system": "cwa_rest_services", "index_right": 0, "id": 544, "survey_name": "Abstract 544 Johnson County" }, "geometry": { "type": "Point", "coordinates": [ -97.38262, 32.333 ] } },
{ "type": "Feature", "properties": { "frs_id": "TXR05GP59", "facility_name": "LUCAS BELTRAN", "program_system": "cwa_rest_services", "index_right": 0, "id": 544, "survey_name": "Abstract 544 Johnson County" }, "geometry": { "type": "Point", "coordinates": [ -97.349539, 32.288 ] } },
{ "type": "Feature", "properties": { "frs_id": "TXR1553PS", "facility_name": "THE CANYONS", "program_system": "cwa_rest_services", "index_right": 0, "id": 544, "survey_name": "Abstract 544 Johnson County" }, "geometry": { "type": "Point", "coordinates": [ -97.313801, 32.58 ] } },
{ "type": "Feature", "properties": { "frs_id": "TXR05R333", "facility_name": "THURMAN TRANSPORTATION", "program_system": "cwa_rest_services", "index_right": 0, "id": 544, "survey_name": "Abstract 544 Johnson County" }, "geometry": { "type": "Point", "coordinates": [ -97.30249, 32.33 ] } },
{ "type": "Feature", "properties": { "frs_id": "TXR1513PE", "facility_name": "VALOR - LAND DEVELOPMENT", "program_system": "cwa_rest_services", "index_right": 0, "id": 544, "survey_name": "Abstract 544 Johnson County" }, "geometry": { "type": "Point", "coordinates": [ -97.162649, 32.293 ] } },
{ "type": "Feature", "properties": { "frs_id": "TXD981597925", "facility_name": "AAMCO TRANSMISSIONS", "program_system": "rcra_rest_services", "index_right": 0, "id": 544, "survey_name": "Abstract 544 Johnson County" }, "geometry": { "type": "Point", "coordinates": [ -97.39344, 32.3787 ] } },
{ "type": "Feature", "properties": { "frs_id": "TXR000087162", "facility_name": "ADVANTAGE AVIATTION TECHNOLOGIES II", "program_system": "rcra_rest_services", "index_right": 0, "id": 544, "survey_name": "Abstract 544 Johnson County" }, "geometry": { "type": "Point", "coordinates": [ -97.18465, 32.27527 ] } },
{ "type": "Feature", "properties": { "frs_id": "TX0000031369", "facility_name": "AIRCRAFT TECHNICAL LEARING CENTER INC", "program_system": "rcra_rest_services", "index_right": 0, "id": 544, "survey_name": "Abstract 544 Johnson County" }, "geometry": { "type": "Point", "coordinates": [ -97.4319, 32.35984 ] } },
{ "type": "Feature", "properties": { "frs_id": "TXR000036988", "facility_name": "AIRGAS USA, LLC CLEBURNE FACILITY", "program_system": "rcra_rest_services", "index_right": 0, "id": 544, "survey_name": "Abstract 544 Johnson County" }, "geometry": { "type": "Point", "coordinates": [ -97.39354, 32.3925 ] } },
{ "type": "Feature", "properties": { "frs_id": "TXR000085688", "facility_name": "AMAZONCOM SERVICES DDF4", "program_system": "rcra_rest_services", "index_right": 0, "id": 544, "survey_name": "Abstract 544 Johnson County" }, "geometry": { "type": "Point", "coordinates": [ -97.144299, 32.536143 ] } },
{ "type": "Feature", "properties": { "frs_id": "TXR000087745", "facility_name": "AMAZONCOM SERVICES TXZ5", "program_system": "rcra_rest_services", "index_right": 0, "id": 544, "survey_name": "Abstract 544 Johnson County" }, "geometry": { "type": "Point", "coordinates": [ -97.421913, 32.385891 ] } },
{ "type": "Feature", "properties": { "frs_id": "TXR000085906", "facility_name": "AMERICAN FILM & PRINTING", "program_system": "rcra_rest_services", "index_right": 0, "id": 544, "survey_name": "Abstract 544 Johnson County" }, "geometry": { "type": "Point", "coordinates": [ -97.20683, 32.41072 ] } },
{ "type": "Feature", "properties": { "frs_id": "TXD006008452", "facility_name": "AMERICAN INDUSTRIAL PRE CAST", "program_system": "rcra_rest_services", "index_right": 0, "id": 544, "survey_name": "Abstract 544 Johnson County" }, "geometry": { "type": "Point", "coordinates": [ -97.26305, 32.460495 ] } },
{ "type": "Feature", "properties": { "frs_id": "TXR000083777", "facility_name": "ARCWOOD ENVIRONMENTAL", "program_system": "rcra_rest_services", "index_right": 0, "id": 544, "survey_name": "Abstract 544 Johnson County" }, "geometry": { "type": "Point", "coordinates": [ -97.244405, 32.436235 ] } },
{ "type": "Feature", "properties": { "frs_id": "TXD988077608", "facility_name": "ATLAS MACHINE & WELDING SERVICE INC", "program_system": "rcra_rest_services", "index_right": 0, "id": 544, "survey_name": "Abstract 544 Johnson County" }, "geometry": { "type": "Point", "coordinates": [ -97.38451, 32.45152 ] } },
{ "type": "Feature", "properties": { "frs_id": "TXD099926370", "facility_name": "AUTO NATION DBA COUNTY LINE FORD", "program_system": "rcra_rest_services", "index_right": 0, "id": 544, "survey_name": "Abstract 544 Johnson County" }, "geometry": { "type": "Point", "coordinates": [ -97.31844, 32.55993 ] } },
{ "type": "Feature", "properties": { "frs_id": "TXD066357500", "facility_name": "BARKER CHEMICAL CO", "program_system": "rcra_rest_services", "index_right": 0, "id": 544, "survey_name": "Abstract 544 Johnson County" }, "geometry": { "type": "Point", "coordinates": [ -97.179167, 32.291667 ] } },
{ "type": "Feature", "properties": { "frs_id": "TXD982758278", "facility_name": "BATTERY SALVAGE OF TEXAS INC", "program_system": "rcra_rest_services", "index_right": 0, "id": 544, "survey_name": "Abstract 544 Johnson County" }, "geometry": { "type": "Point", "coordinates": [ -97.26333, 32.56984 ] } },
{ "type": "Feature", "properties": { "frs_id": "TXD038458121", "facility_name": "BAY PLASTICS INC", "program_system": "rcra_rest_services", "index_right": 0, "id": 544, "survey_name": "Abstract 544 Johnson County" }, "geometry": { "type": "Point", "coordinates": [ -97.31728, 32.52152 ] } },
{ "type": "Feature", "properties": { "frs_id": "TXR000081626", "facility_name": "BHC OF TEXAS", "program_system": "rcra_rest_services", "index_right": 0, "id": 544, "survey_name": "Abstract 544 Johnson County" }, "geometry": { "type": "Point", "coordinates": [ -97.288231, 32.391779 ] } },
{ "type": "Feature", "properties": { "frs_id": "TXD076718246", "facility_name": "BIRDWELL CLEANING PRODUCTS INC", "program_system": "rcra_rest_services", "index_right": 0, "id": 544, "survey_name": "Abstract 544 Johnson County" }, "geometry": { "type": "Point", "coordinates": [ -97.322102, 32.391778 ] } },
{ "type": "Feature", "properties": { "frs_id": "TXD982285041", "facility_name": "BLUFF MANUFACTURING INC", "program_system": "rcra_rest_services", "index_right": 0, "id": 544, "survey_name": "Abstract 544 Johnson County" }, "geometry": { "type": "Point", "coordinates": [ -97.3079, 32.53921 ] } },
{ "type": "Feature", "properties": { "frs_id": "TXR000061754", "facility_name": "BOVAL COMPANY", "program_system": "rcra_rest_services", "index_right": 0, "id": 544, "survey_name": "Abstract 544 Johnson County" }, "geometry": { "type": "Point", "coordinates": [ -97.4027, 32.38574 ] } },
{ "type": "Feature", "properties": { "frs_id": "TXD174995704", "facility_name": "BRANDOM CABINETS", "program_system": "rcra_rest_services", "index_right": 0, "id": 544, "survey_name": "Abstract 544 Johnson County" }, "geometry": { "type": "Point", "coordinates": [ -97.327508, 32.39805 ] } },
{ "type": "Feature", "properties": { "frs_id": "TXP490351408", "facility_name": "BRAZOS ELECTRIC POWER", "program_system": "rcra_rest_services", "index_right": 0, "id": 544, "survey_name": "Abstract 544 Johnson County" }, "geometry": { "type": "Point", "coordinates": [ -97.408087, 32.401074 ] } },
{ "type": "Feature", "properties": { "frs_id": "TXR000013177", "facility_name": "BURKS-PLIHAL COMPANY INC", "program_system": "rcra_rest_services", "index_right": 0, "id": 544, "survey_name": "Abstract 544 Johnson County" }, "geometry": { "type": "Point", "coordinates": [ -97.37438, 32.488686 ] } },
{ "type": "Feature", "properties": { "frs_id": "TXR000080188", "facility_name": "BURLESON MODERN DENTISTRY", "program_system": "rcra_rest_services", "index_right": 0, "id": 544, "survey_name": "Abstract 544 Johnson County" }, "geometry": { "type": "Point", "coordinates": [ -97.349804, 32.521725 ] } },
{ "type": "Feature", "properties": { "frs_id": "TXD050129543", "facility_name": "BURLINGTON NORTHERN SANTA FE CORPORATION", "program_system": "rcra_rest_services", "index_right": 0, "id": 544, "survey_name": "Abstract 544 Johnson County" }, "geometry": { "type": "Point", "coordinates": [ -97.39217, 32.34644 ] } },
{ "type": "Feature", "properties": { "frs_id": "TXD035213297", "facility_name": "CADDO STREET PAINT & BODY", "program_system": "rcra_rest_services", "index_right": 0, "id": 544, "survey_name": "Abstract 544 Johnson County" }, "geometry": { "type": "Point", "coordinates": [ -97.38364, 32.33978 ] } },
{ "type": "Feature", "properties": { "frs_id": "TXD988027025", "facility_name": "CAMPBELLS AUTO BODY SHOP", "program_system": "rcra_rest_services", "index_right": 0, "id": 544, "survey_name": "Abstract 544 Johnson County" }, "geometry": { "type": "Point", "coordinates": [ -97.31889, 32.55093 ] } },
{ "type": "Feature", "properties": { "frs_id": "TXD066670415", "facility_name": "CAR PAINT AND COLLISION CENTER", "program_system": "rcra_rest_services", "index_right": 0, "id": 544, "survey_name": "Abstract 544 Johnson County" }, "geometry": { "type": "Point", "coordinates": [ -97.39079, 32.35873 ] } },
{ "type": "Feature", "properties": { "frs_id": "TXD988034864", "facility_name": "CHEVRON USA", "program_system": "rcra_rest_services", "index_right": 0, "id": 544, "survey_name": "Abstract 544 Johnson County" }, "geometry": { "type": "Point", "coordinates": [ -97.306547, 32.532677 ] } },
{ "type": "Feature", "properties": { "frs_id": "TX0000018127", "facility_name": "CLEAN SOLVENT RECYCLING COMPANY", "program_system": "rcra_rest_services", "index_right": 0, "id": 544, "survey_name": "Abstract 544 Johnson County" }, "geometry": { "type": "Point", "coordinates": [ -97.245245, 32.579777 ] } },
{ "type": "Feature", "properties": { "frs_id": "TXD988074258", "facility_name": "CLEBURNE ALTERNATOR AND STARTER", "program_system": "rcra_rest_services", "index_right": 0, "id": 544, "survey_name": "Abstract 544 Johnson County" }, "geometry": { "type": "Point", "coordinates": [ -97.3859, 32.34437 ] } },
{ "type": "Feature", "properties": { "frs_id": "TXD026141598", "facility_name": "CLEBURNE DODGE CHRYSLER & PLYMOUTH INC", "program_system": "rcra_rest_services", "index_right": 0, "id": 544, "survey_name": "Abstract 544 Johnson County" }, "geometry": { "type": "Point", "coordinates": [ -97.39165, 32.3846 ] } },
{ "type": "Feature", "properties": { "frs_id": "TXR000000943", "facility_name": "CLEBURNE MOTOR CO INC", "program_system": "rcra_rest_services", "index_right": 0, "id": 544, "survey_name": "Abstract 544 Johnson County" }, "geometry": { "type": "Point", "coordinates": [ -97.38356, 32.42167 ] } },
{ "type": "Feature", "properties": { "frs_id": "TXD987992054", "facility_name": "CLEBURNE RAILWAY REPAIR", "program_system": "rcra_rest_services", "index_right": 0, "id": 544, "survey_name": "Abstract 544 Johnson County" }, "geometry": { "type": "Point", "coordinates": [ -97.38013, 32.35619 ] } },
{ "type": "Feature", "properties": { "frs_id": "TXR000084197", "facility_name": "CLEBURNE RAILYARD SPECIALTY RESCUE AND FIRE SERVIC", "program_system": "rcra_rest_services", "index_right": 0, "id": 544, "survey_name": "Abstract 544 Johnson County" }, "geometry": { "type": "Point", "coordinates": [ -97.380119, 32.356192 ] } },
{ "type": "Feature", "properties": { "frs_id": "TXD007327067", "facility_name": "CLEBURNE TIMES REVIEW", "program_system": "rcra_rest_services", "index_right": 0, "id": 544, "survey_name": "Abstract 544 Johnson County" }, "geometry": { "type": "Point", "coordinates": [ -97.38468, 32.34657 ] } },
{ "type": "Feature", "properties": { "frs_id": "TXD988041943", "facility_name": "CLETEX TRUCKING INC", "program_system": "rcra_rest_services", "index_right": 0, "id": 544, "survey_name": "Abstract 544 Johnson County" }, "geometry": { "type": "Point", "coordinates": [ -97.328079, 32.346162 ] } },
{ "type": "Feature", "properties": { "frs_id": "TXR000079385", "facility_name": "COASTAL CHEMICAL", "program_system": "rcra_rest_services", "index_right": 0, "id": 544, "survey_name": "Abstract 544 Johnson County" }, "geometry": { "type": "Point", "coordinates": [ -97.45915, 32.41751 ] } },
{ "type": "Feature", "properties": { "frs_id": "TXD981909989", "facility_name": "COMET ONE-HOUR CLEANERS", "program_system": "rcra_rest_services", "index_right": 0, "id": 544, "survey_name": "Abstract 544 Johnson County" }, "geometry": { "type": "Point", "coordinates": [ -97.408964, 32.341144 ] } },
{ "type": "Feature", "properties": { "frs_id": "TXD108319856", "facility_name": "COMET ONE-HOUR CLEANERS", "program_system": "rcra_rest_services", "index_right": 0, "id": 544, "survey_name": "Abstract 544 Johnson County" }, "geometry": { "type": "Point", "coordinates": [ -97.38445, 32.467884 ] } },
{ "type": "Feature", "properties": { "frs_id": "TXD981910003", "facility_name": "COMET ONE-HOUR CLEANERS", "program_system": "rcra_rest_services", "index_right": 0, "id": 544, "survey_name": "Abstract 544 Johnson County" }, "geometry": { "type": "Point", "coordinates": [ -97.39266, 32.3455 ] } },
{ "type": "Feature", "properties": { "frs_id": "TXR000081576", "facility_name": "CVS PHARMACY #10335", "program_system": "rcra_rest_services", "index_right": 0, "id": 544, "survey_name": "Abstract 544 Johnson County" }, "geometry": { "type": "Point", "coordinates": [ -97.21525, 32.41632 ] } },
{ "type": "Feature", "properties": { "frs_id": "TXR000083629", "facility_name": "CVS PHARMACY 10335", "program_system": "rcra_rest_services", "index_right": 0, "id": 544, "survey_name": "Abstract 544 Johnson County" }, "geometry": { "type": "Point", "coordinates": [ -97.229308, 32.416277 ] } },
{ "type": "Feature", "properties": { "frs_id": "TXR000081154", "facility_name": "CVS PHARMACY 5465", "program_system": "rcra_rest_services", "index_right": 0, "id": 544, "survey_name": "Abstract 544 Johnson County" }, "geometry": { "type": "Point", "coordinates": [ -97.347951, 32.520006 ] } },
{ "type": "Feature", "properties": { "frs_id": "TXR000080832", "facility_name": "CVS PHARMACY 6818", "program_system": "rcra_rest_services", "index_right": 0, "id": 544, "survey_name": "Abstract 544 Johnson County" }, "geometry": { "type": "Point", "coordinates": [ -97.394117, 32.346333 ] } },
{ "type": "Feature", "properties": { "frs_id": "TXD987993847", "facility_name": "CVS PHARMACY 7489", "program_system": "rcra_rest_services", "index_right": 0, "id": 544, "survey_name": "Abstract 544 Johnson County" }, "geometry": { "type": "Point", "coordinates": [ -97.328014, 32.544529 ] } },
{ "type": "Feature", "properties": { "frs_id": "TXD988070496", "facility_name": "CX TRANSPORTATION INC", "program_system": "rcra_rest_services", "index_right": 0, "id": 544, "survey_name": "Abstract 544 Johnson County" }, "geometry": { "type": "Point", "coordinates": [ -97.393831, 32.327362 ] } },
{ "type": "Feature", "properties": { "frs_id": "TXR000085812", "facility_name": "DAKOTA DISTRIBUTING", "program_system": "rcra_rest_services", "index_right": 0, "id": 544, "survey_name": "Abstract 544 Johnson County" }, "geometry": { "type": "Point", "coordinates": [ -97.1063, 32.5275 ] } },
{ "type": "Feature", "properties": { "frs_id": "TXD056373723", "facility_name": "DELCO FIBERGLASS PRODUCTS INC", "program_system": "rcra_rest_services", "index_right": 0, "id": 544, "survey_name": "Abstract 544 Johnson County" }, "geometry": { "type": "Point", "coordinates": [ -97.384462, 32.462682 ] } },
{ "type": "Feature", "properties": { "frs_id": "TXR000022277", "facility_name": "DENT COLLISION REPAIR", "program_system": "rcra_rest_services", "index_right": 0, "id": 544, "survey_name": "Abstract 544 Johnson County" }, "geometry": { "type": "Point", "coordinates": [ -97.38458, 32.40147 ] } },
{ "type": "Feature", "properties": { "frs_id": "TXR000069484", "facility_name": "DFW WASTE OIL SERVICE", "program_system": "rcra_rest_services", "index_right": 0, "id": 544, "survey_name": "Abstract 544 Johnson County" }, "geometry": { "type": "Point", "coordinates": [ -97.252071, 32.443722 ] } },
{ "type": "Feature", "properties": { "frs_id": "TXD038452363", "facility_name": "DIESEL INDUSTRIAL TRACTOR INC", "program_system": "rcra_rest_services", "index_right": 0, "id": 544, "survey_name": "Abstract 544 Johnson County" }, "geometry": { "type": "Point", "coordinates": [ -97.38596, 32.39895 ] } },
{ "type": "Feature", "properties": { "frs_id": "TXR000038851", "facility_name": "DISPOSAL TECHNOLOGIES EXCHANGE", "program_system": "rcra_rest_services", "index_right": 0, "id": 544, "survey_name": "Abstract 544 Johnson County" }, "geometry": { "type": "Point", "coordinates": [ -97.233048, 32.469993 ] } },
{ "type": "Feature", "properties": { "frs_id": "TXD988059804", "facility_name": "DPC INDUSTRIES CLEBURNE", "program_system": "rcra_rest_services", "index_right": 0, "id": 544, "survey_name": "Abstract 544 Johnson County" }, "geometry": { "type": "Point", "coordinates": [ -97.40696, 32.38577 ] } },
{ "type": "Feature", "properties": { "frs_id": "TXR000081497", "facility_name": "DURA-TECH PROCESSES", "program_system": "rcra_rest_services", "index_right": 0, "id": 544, "survey_name": "Abstract 544 Johnson County" }, "geometry": { "type": "Point", "coordinates": [ -97.13729, 32.54933 ] } },
{ "type": "Feature", "properties": { "frs_id": "TXR000006569", "facility_name": "DURHAM SCHOOL SERVICES", "program_system": "rcra_rest_services", "index_right": 0, "id": 544, "survey_name": "Abstract 544 Johnson County" }, "geometry": { "type": "Point", "coordinates": [ -97.38118, 32.448411 ] } },
{ "type": "Feature", "properties": { "frs_id": "TXD064215320", "facility_name": "EAZ LIFT SPRING CORPORATION", "program_system": "rcra_rest_services", "index_right": 0, "id": 544, "survey_name": "Abstract 544 Johnson County" }, "geometry": { "type": "Point", "coordinates": [ -97.14717, 32.54745 ] } },
{ "type": "Feature", "properties": { "frs_id": "TXD981906779", "facility_name": "EHNCO INC", "program_system": "rcra_rest_services", "index_right": 0, "id": 544, "survey_name": "Abstract 544 Johnson County" }, "geometry": { "type": "Point", "coordinates": [ -97.115646, 32.393531 ] } },
{ "type": "Feature", "properties": { "frs_id": "TXR000005454", "facility_name": "ENVIRONMENTAL INSIGHT INC", "program_system": "rcra_rest_services", "index_right": 0, "id": 544, "survey_name": "Abstract 544 Johnson County" }, "geometry": { "type": "Point", "coordinates": [ -97.225335, 32.407033 ] } },
{ "type": "Feature", "properties": { "frs_id": "TXR000082359", "facility_name": "FAMILY DOLLAR #2423", "program_system": "rcra_rest_services", "index_right": 0, "id": 544, "survey_name": "Abstract 544 Johnson County" }, "geometry": { "type": "Point", "coordinates": [ -97.3892, 32.35612 ] } },
{ "type": "Feature", "properties": { "frs_id": "TXR000082725", "facility_name": "FAMILY DOLLAR #5285", "program_system": "rcra_rest_services", "index_right": 0, "id": 544, "survey_name": "Abstract 544 Johnson County" }, "geometry": { "type": "Point", "coordinates": [ -97.40434, 32.3417 ] } },
{ "type": "Feature", "properties": { "frs_id": "TXR000082993", "facility_name": "FAMILY DOLLAR #5864", "program_system": "rcra_rest_services", "index_right": 0, "id": 544, "survey_name": "Abstract 544 Johnson County" }, "geometry": { "type": "Point", "coordinates": [ -97.215687, 32.416839 ] } },
{ "type": "Feature", "properties": { "frs_id": "TXR000082752", "facility_name": "FAMILY DOLLAR #6469", "program_system": "rcra_rest_services", "index_right": 0, "id": 544, "survey_name": "Abstract 544 Johnson County" }, "geometry": { "type": "Point", "coordinates": [ -97.385749, 32.461491 ] } },
{ "type": "Feature", "properties": { "frs_id": "TXR000082639", "facility_name": "FAMILY DOLLAR #6486", "program_system": "rcra_rest_services", "index_right": 0, "id": 544, "survey_name": "Abstract 544 Johnson County" }, "geometry": { "type": "Point", "coordinates": [ -97.10772, 32.43545 ] } },
{ "type": "Feature", "properties": { "frs_id": "TXR000016360", "facility_name": "FAMILY MEDICINE ASSOCIATES PLAZA ONE", "program_system": "rcra_rest_services", "index_right": 0, "id": 544, "survey_name": "Abstract 544 Johnson County" }, "geometry": { "type": "Point", "coordinates": [ -97.43799, 32.33055 ] } },
{ "type": "Feature", "properties": { "frs_id": "TXD026141309", "facility_name": "FORREST CHEVROLET CAR DEALERS", "program_system": "rcra_rest_services", "index_right": 0, "id": 544, "survey_name": "Abstract 544 Johnson County" }, "geometry": { "type": "Point", "coordinates": [ -97.39137, 32.38545 ] } },
{ "type": "Feature", "properties": { "frs_id": "TX0000911925", "facility_name": "FORREST PONTIAC BUICK", "program_system": "rcra_rest_services", "index_right": 0, "id": 544, "survey_name": "Abstract 544 Johnson County" }, "geometry": { "type": "Point", "coordinates": [ -97.38399, 32.40273 ] } },
{ "type": "Feature", "properties": { "frs_id": "TXD988077632", "facility_name": "FRANKLIN MANUFACTURING & SUPPLY INC", "program_system": "rcra_rest_services", "index_right": 0, "id": 544, "survey_name": "Abstract 544 Johnson County" }, "geometry": { "type": "Point", "coordinates": [ -97.34979, 32.51918 ] } },
{ "type": "Feature", "properties": { "frs_id": "TX0000721464", "facility_name": "FRANKLIN MANUFACTURING & SUPPLY INC", "program_system": "rcra_rest_services", "index_right": 0, "id": 544, "survey_name": "Abstract 544 Johnson County" }, "geometry": { "type": "Point", "coordinates": [ -97.38087, 32.48331 ] } },
{ "type": "Feature", "properties": { "frs_id": "TXT490015013", "facility_name": "GEARHART INDUSTRIES INC", "program_system": "rcra_rest_services", "index_right": 0, "id": 544, "survey_name": "Abstract 544 Johnson County" }, "geometry": { "type": "Point", "coordinates": [ -97.211272, 32.368628 ] } },
{ "type": "Feature", "properties": { "frs_id": "TXD988049847", "facility_name": "GEORGE COMPRESSOR SALES", "program_system": "rcra_rest_services", "index_right": 0, "id": 544, "survey_name": "Abstract 544 Johnson County" }, "geometry": { "type": "Point", "coordinates": [ -97.32072, 32.54697 ] } },
{ "type": "Feature", "properties": { "frs_id": "TXR000079179", "facility_name": "GOEX BURN BURIAL PIT AREA", "program_system": "rcra_rest_services", "index_right": 0, "id": 544, "survey_name": "Abstract 544 Johnson County" }, "geometry": { "type": "Point", "coordinates": [ -97.38923, 32.40382 ] } },
{ "type": "Feature", "properties": { "frs_id": "TXD080746019", "facility_name": "GOEX INTERNATIONAL", "program_system": "rcra_rest_services", "index_right": 0, "id": 544, "survey_name": "Abstract 544 Johnson County" }, "geometry": { "type": "Point", "coordinates": [ -97.38923, 32.40382 ] } },
{ "type": "Feature", "properties": { "frs_id": "TXR000087487", "facility_name": "GOLDEN STATE FOODS", "program_system": "rcra_rest_services", "index_right": 0, "id": 544, "survey_name": "Abstract 544 Johnson County" }, "geometry": { "type": "Point", "coordinates": [ -97.276947, 32.470093 ] } },
{ "type": "Feature", "properties": { "frs_id": "TXD039603436", "facility_name": "GOOD TIMES VAN", "program_system": "rcra_rest_services", "index_right": 0, "id": 544, "survey_name": "Abstract 544 Johnson County" }, "geometry": { "type": "Point", "coordinates": [ -97.114862, 32.425431 ] } },
{ "type": "Feature", "properties": { "frs_id": "TXD085147569", "facility_name": "GRANDVIEW EQUIPMENT CO", "program_system": "rcra_rest_services", "index_right": 0, "id": 544, "survey_name": "Abstract 544 Johnson County" }, "geometry": { "type": "Point", "coordinates": [ -97.169792, 32.270917 ] } },
{ "type": "Feature", "properties": { "frs_id": "TXR000083541", "facility_name": "GRANDVIEW YARD", "program_system": "rcra_rest_services", "index_right": 0, "id": 544, "survey_name": "Abstract 544 Johnson County" }, "geometry": { "type": "Point", "coordinates": [ -97.16012, 32.275308 ] } },
{ "type": "Feature", "properties": { "frs_id": "TXD021617444", "facility_name": "HACKWORTH PAINT & BODY SHOP", "program_system": "rcra_rest_services", "index_right": 0, "id": 544, "survey_name": "Abstract 544 Johnson County" }, "geometry": { "type": "Point", "coordinates": [ -97.394062, 32.370099 ] } },
{ "type": "Feature", "properties": { "frs_id": "TXD980745186", "facility_name": "HALLIBURTON ENERGY SERVICES", "program_system": "rcra_rest_services", "index_right": 0, "id": 544, "survey_name": "Abstract 544 Johnson County" }, "geometry": { "type": "Point", "coordinates": [ -97.211272, 32.368628 ] } },
{ "type": "Feature", "properties": { "frs_id": "TXR000069443", "facility_name": "HALLIBURTON ENERGY SERVICES ALVARADO FIELD CAM", "program_system": "rcra_rest_services", "index_right": 0, "id": 544, "survey_name": "Abstract 544 Johnson County" }, "geometry": { "type": "Point", "coordinates": [ -97.211327, 32.370029 ] } },
{ "type": "Feature", "properties": { "frs_id": "TXD050278233", "facility_name": "HALLIBURTON ENERGY SERVICES JET RESEARCH CENTER", "program_system": "rcra_rest_services", "index_right": 0, "id": 544, "survey_name": "Abstract 544 Johnson County" }, "geometry": { "type": "Point", "coordinates": [ -97.2002, 32.36273 ] } },
{ "type": "Feature", "properties": { "frs_id": "TXD007327075", "facility_name": "HALLMAN PRINTING & OFFICE", "program_system": "rcra_rest_services", "index_right": 0, "id": 544, "survey_name": "Abstract 544 Johnson County" }, "geometry": { "type": "Point", "coordinates": [ -97.380397, 32.348806 ] } },
{ "type": "Feature", "properties": { "frs_id": "TXR000001263", "facility_name": "HAWTHORN MANUFACTURING", "program_system": "rcra_rest_services", "index_right": 0, "id": 544, "survey_name": "Abstract 544 Johnson County" }, "geometry": { "type": "Point", "coordinates": [ -97.18032, 32.26956 ] } },
{ "type": "Feature", "properties": { "frs_id": "TXR000086237", "facility_name": "HENIFF TRANSPORTATION SYSTEMS CLEBURNE TRANSLOAD L", "program_system": "rcra_rest_services", "index_right": 0, "id": 544, "survey_name": "Abstract 544 Johnson County" }, "geometry": { "type": "Point", "coordinates": [ -97.439007, 32.405994 ] } },
{ "type": "Feature", "properties": { "frs_id": "TXD103982880", "facility_name": "HERBERTS AUTO REPAIR", "program_system": "rcra_rest_services", "index_right": 0, "id": 544, "survey_name": "Abstract 544 Johnson County" }, "geometry": { "type": "Point", "coordinates": [ -97.33246, 32.54314 ] } },
{ "type": "Feature", "properties": { "frs_id": "TXD982294233", "facility_name": "HOLBROOK PATTERSON INC", "program_system": "rcra_rest_services", "index_right": 0, "id": 544, "survey_name": "Abstract 544 Johnson County" }, "geometry": { "type": "Point", "coordinates": [ -97.38002, 32.32732 ] } },
{ "type": "Feature", "properties": { "frs_id": "TXR000086825", "facility_name": "HOLT CAT", "program_system": "rcra_rest_services", "index_right": 0, "id": 544, "survey_name": "Abstract 544 Johnson County" }, "geometry": { "type": "Point", "coordinates": [ -97.40018, 32.38337 ] } },
{ "type": "Feature", "properties": { "frs_id": "TXR000059584", "facility_name": "HOME DEPOT STORE 6520", "program_system": "rcra_rest_services", "index_right": 0, "id": 544, "survey_name": "Abstract 544 Johnson County" }, "geometry": { "type": "Point", "coordinates": [ -97.39466, 32.38313 ] } },
{ "type": "Feature", "properties": { "frs_id": "TXR000064857", "facility_name": "HOME DEPOT STORE 8438", "program_system": "rcra_rest_services", "index_right": 0, "id": 544, "survey_name": "Abstract 544 Johnson County" }, "geometry": { "type": "Point", "coordinates": [ -97.35198, 32.52469 ] } },
{ "type": "Feature", "properties": { "frs_id": "TXD987986924", "facility_name": "HYDRO CONDUIT CORP", "program_system": "rcra_rest_services", "index_right": 0, "id": 544, "survey_name": "Abstract 544 Johnson County" }, "geometry": { "type": "Point", "coordinates": [ -97.19692, 32.41599 ] } },
{ "type": "Feature", "properties": { "frs_id": "TXR000084615", "facility_name": "IESI TURKEY CREEK LANDFILL", "program_system": "rcra_rest_services", "index_right": 0, "id": 544, "survey_name": "Abstract 544 Johnson County" }, "geometry": { "type": "Point", "coordinates": [ -97.202, 32.3562 ] } },
{ "type": "Feature", "properties": { "frs_id": "TXD030173322", "facility_name": "INDUSTRIAL SCREW CONVEYOR INC", "program_system": "rcra_rest_services", "index_right": 0, "id": 544, "survey_name": "Abstract 544 Johnson County" }, "geometry": { "type": "Point", "coordinates": [ -97.31624, 32.45885 ] } },
{ "type": "Feature", "properties": { "frs_id": "TXD988060323", "facility_name": "INTERNATIONAL BIOMEDICAL INC", "program_system": "rcra_rest_services", "index_right": 0, "id": 544, "survey_name": "Abstract 544 Johnson County" }, "geometry": { "type": "Point", "coordinates": [ -97.390442, 32.388527 ] } },
{ "type": "Feature", "properties": { "frs_id": "TXR000048777", "facility_name": "INTERNATIONAL BIOMEDICAL LTD", "program_system": "rcra_rest_services", "index_right": 0, "id": 544, "survey_name": "Abstract 544 Johnson County" }, "geometry": { "type": "Point", "coordinates": [ -97.3897, 32.39097 ] } },
{ "type": "Feature", "properties": { "frs_id": "TXR000061663", "facility_name": "JAMES HARDIE BUILDING PRODUCTS", "program_system": "rcra_rest_services", "index_right": 0, "id": 544, "survey_name": "Abstract 544 Johnson County" }, "geometry": { "type": "Point", "coordinates": [ -97.40798, 32.40107 ] } },
{ "type": "Feature", "properties": { "frs_id": "TXD054385539", "facility_name": "JOHNS MANVILLE-CLEBURNE PLANT", "program_system": "rcra_rest_services", "index_right": 0, "id": 544, "survey_name": "Abstract 544 Johnson County" }, "geometry": { "type": "Point", "coordinates": [ -97.3924, 32.38548 ] } },
{ "type": "Feature", "properties": { "frs_id": "TXR000084358", "facility_name": "JOHNSON COUNTY PIPE", "program_system": "rcra_rest_services", "index_right": 0, "id": 544, "survey_name": "Abstract 544 Johnson County" }, "geometry": { "type": "Point", "coordinates": [ -97.152998, 32.409304 ] } },
{ "type": "Feature", "properties": { "frs_id": "TXD000903906", "facility_name": "K-T GALVANIZING VENUS FACILITY", "program_system": "rcra_rest_services", "index_right": 0, "id": 544, "survey_name": "Abstract 544 Johnson County" }, "geometry": { "type": "Point", "coordinates": [ -97.103722, 32.52502 ] } },
{ "type": "Feature", "properties": { "frs_id": "TXD982286577", "facility_name": "KATHYS ALTER & DRY CLEANERS", "program_system": "rcra_rest_services", "index_right": 0, "id": 544, "survey_name": "Abstract 544 Johnson County" }, "geometry": { "type": "Point", "coordinates": [ -97.32985, 32.54258 ] } },
{ "type": "Feature", "properties": { "frs_id": "TXD010474203", "facility_name": "KIMBRO MEDICAL CENTER", "program_system": "rcra_rest_services", "index_right": 0, "id": 544, "survey_name": "Abstract 544 Johnson County" }, "geometry": { "type": "Point", "coordinates": [ -97.41211, 32.34565 ] } },
{ "type": "Feature", "properties": { "frs_id": "TXD013247333", "facility_name": "KOMFORT INDUSTRIES OF TEXAS", "program_system": "rcra_rest_services", "index_right": 0, "id": 544, "survey_name": "Abstract 544 Johnson County" }, "geometry": { "type": "Point", "coordinates": [ -97.307947, 32.540071 ] } },
{ "type": "Feature", "properties": { "frs_id": "TXR000086790", "facility_name": "KROGER #415-35", "program_system": "rcra_rest_services", "index_right": 0, "id": 544, "survey_name": "Abstract 544 Johnson County" }, "geometry": { "type": "Point", "coordinates": [ -97.41382, 32.33829 ] } },
{ "type": "Feature", "properties": { "frs_id": "TXR000086725", "facility_name": "KROGER #591-35", "program_system": "rcra_rest_services", "index_right": 0, "id": 544, "survey_name": "Abstract 544 Johnson County" }, "geometry": { "type": "Point", "coordinates": [ -97.350978, 32.517466 ] } },
{ "type": "Feature", "properties": { "frs_id": "TXD058674342", "facility_name": "KWS MANUFACTURING", "program_system": "rcra_rest_services", "index_right": 0, "id": 544, "survey_name": "Abstract 544 Johnson County" }, "geometry": { "type": "Point", "coordinates": [ -97.33609, 32.45983 ] } },
{ "type": "Feature", "properties": { "frs_id": "TXR000087886", "facility_name": "LAND WORX", "program_system": "rcra_rest_services", "index_right": 0, "id": 544, "survey_name": "Abstract 544 Johnson County" }, "geometry": { "type": "Point", "coordinates": [ -97.100762, 32.519421 ] } },
{ "type": "Feature", "properties": { "frs_id": "TXR000043448", "facility_name": "LIPPERT COMPONENTS INC", "program_system": "rcra_rest_services", "index_right": 0, "id": 544, "survey_name": "Abstract 544 Johnson County" }, "geometry": { "type": "Point", "coordinates": [ -97.19247, 32.41599 ] } },
{ "type": "Feature", "properties": { "frs_id": "TXD988069225", "facility_name": "LONE STAR GAS COMPANY", "program_system": "rcra_rest_services", "index_right": 0, "id": 544, "survey_name": "Abstract 544 Johnson County" }, "geometry": { "type": "Point", "coordinates": [ -97.306547, 32.532677 ] } },
{ "type": "Feature", "properties": { "frs_id": "TXR000084411", "facility_name": "LOWES OF BURLESON 514", "program_system": "rcra_rest_services", "index_right": 0, "id": 544, "survey_name": "Abstract 544 Johnson County" }, "geometry": { "type": "Point", "coordinates": [ -97.318195, 32.561671 ] } },
{ "type": "Feature", "properties": { "frs_id": "TXR000084429", "facility_name": "LOWES OF CLEBURNE 2220", "program_system": "rcra_rest_services", "index_right": 0, "id": 544, "survey_name": "Abstract 544 Johnson County" }, "geometry": { "type": "Point", "coordinates": [ -97.39362, 32.37808 ] } },
{ "type": "Feature", "properties": { "frs_id": "TXD026117838", "facility_name": "LYNN SMITH CHEVROLET-GEO INC", "program_system": "rcra_rest_services", "index_right": 0, "id": 544, "survey_name": "Abstract 544 Johnson County" }, "geometry": { "type": "Point", "coordinates": [ -97.35037, 32.51818 ] } },
{ "type": "Feature", "properties": { "frs_id": "TXR000085652", "facility_name": "MID-AMERICAN OPERATING TRUCK YARD", "program_system": "rcra_rest_services", "index_right": 0, "id": 544, "survey_name": "Abstract 544 Johnson County" }, "geometry": { "type": "Point", "coordinates": [ -97.422809, 32.496762 ] } },
{ "type": "Feature", "properties": { "frs_id": "TX0000971408", "facility_name": "MIRACLE AUTO PAINTING", "program_system": "rcra_rest_services", "index_right": 0, "id": 544, "survey_name": "Abstract 544 Johnson County" }, "geometry": { "type": "Point", "coordinates": [ -97.3507, 32.5181 ] } },
{ "type": "Feature", "properties": { "frs_id": "TXR000080077", "facility_name": "MOMENTIVE SPECIALTY CHEMICALS CLEBURNE", "program_system": "rcra_rest_services", "index_right": 0, "id": 544, "survey_name": "Abstract 544 Johnson County" }, "geometry": { "type": "Point", "coordinates": [ -97.43046, 32.4028 ] } },
{ "type": "Feature", "properties": { "frs_id": "TXR000080566", "facility_name": "MURPHY SCOTT RESOURCES", "program_system": "rcra_rest_services", "index_right": 0, "id": 544, "survey_name": "Abstract 544 Johnson County" }, "geometry": { "type": "Point", "coordinates": [ -97.19278, 32.34339 ] } },
{ "type": "Feature", "properties": { "frs_id": "TXD139560064", "facility_name": "NATIONAL BRAKE AND CLUTCH", "program_system": "rcra_rest_services", "index_right": 0, "id": 544, "survey_name": "Abstract 544 Johnson County" }, "geometry": { "type": "Point", "coordinates": [ -97.3828, 32.34634 ] } },
{ "type": "Feature", "properties": { "frs_id": "TXR000080553", "facility_name": "NATIONAL RAPID RESPONSE INC", "program_system": "rcra_rest_services", "index_right": 0, "id": 544, "survey_name": "Abstract 544 Johnson County" }, "geometry": { "type": "Point", "coordinates": [ -97.32698, 32.53269 ] } },
{ "type": "Feature", "properties": { "frs_id": "TXR000074864", "facility_name": "NATIONAL TIRE & BATTERY #8767", "program_system": "rcra_rest_services", "index_right": 0, "id": 544, "survey_name": "Abstract 544 Johnson County" }, "geometry": { "type": "Point", "coordinates": [ -97.34186, 32.52721 ] } },
{ "type": "Feature", "properties": { "frs_id": "TXD988026738", "facility_name": "NEW GRAND INTERNATIONAL", "program_system": "rcra_rest_services", "index_right": 0, "id": 544, "survey_name": "Abstract 544 Johnson County" }, "geometry": { "type": "Point", "coordinates": [ -97.359383, 32.507792 ] } },
{ "type": "Feature", "properties": { "frs_id": "TXR000083249", "facility_name": "NEXTIER CLEBURNE", "program_system": "rcra_rest_services", "index_right": 0, "id": 544, "survey_name": "Abstract 544 Johnson County" }, "geometry": { "type": "Point", "coordinates": [ -97.430465, 32.402668 ] } },
{ "type": "Feature", "properties": { "frs_id": "TXD000783225", "facility_name": "NOAKS INC", "program_system": "rcra_rest_services", "index_right": 0, "id": 544, "survey_name": "Abstract 544 Johnson County" }, "geometry": { "type": "Point", "coordinates": [ -97.380713, 32.348751 ] } },
{ "type": "Feature", "properties": { "frs_id": "TXR000086210", "facility_name": "ORTHMAN CONVEYING SYSTEMS", "program_system": "rcra_rest_services", "index_right": 0, "id": 544, "survey_name": "Abstract 544 Johnson County" }, "geometry": { "type": "Point", "coordinates": [ -97.40774, 32.38577 ] } },
{ "type": "Feature", "properties": { "frs_id": "TXR000085782", "facility_name": "PAREX USA", "program_system": "rcra_rest_services", "index_right": 0, "id": 544, "survey_name": "Abstract 544 Johnson County" }, "geometry": { "type": "Point", "coordinates": [ -97.35011, 32.37027 ] } },
{ "type": "Feature", "properties": { "frs_id": "TXD008011462", "facility_name": "PARKER-HANNIFIN HOSE PRODUCTS DIVISION", "program_system": "rcra_rest_services", "index_right": 0, "id": 544, "survey_name": "Abstract 544 Johnson County" }, "geometry": { "type": "Point", "coordinates": [ -97.390248, 32.389157 ] } },
{ "type": "Feature", "properties": { "frs_id": "TXD988074241", "facility_name": "PENSKE TRUCK LEASING CO LP", "program_system": "rcra_rest_services", "index_right": 0, "id": 544, "survey_name": "Abstract 544 Johnson County" }, "geometry": { "type": "Point", "coordinates": [ -97.363702, 32.357006 ] } },
{ "type": "Feature", "properties": { "frs_id": "TXR000080045", "facility_name": "PENSKE TRUCK LEASING CO., LP", "program_system": "rcra_rest_services", "index_right": 0, "id": 544, "survey_name": "Abstract 544 Johnson County" }, "geometry": { "type": "Point", "coordinates": [ -97.21252, 32.39514 ] } },
{ "type": "Feature", "properties": { "frs_id": "TXD981608037", "facility_name": "PERTECH", "program_system": "rcra_rest_services", "index_right": 0, "id": 544, "survey_name": "Abstract 544 Johnson County" }, "geometry": { "type": "Point", "coordinates": [ -97.30798, 32.54201 ] } },
{ "type": "Feature", "properties": { "frs_id": "TXD988043253", "facility_name": "PETRO RUBBER PRODUCTS INC", "program_system": "rcra_rest_services", "index_right": 0, "id": 544, "survey_name": "Abstract 544 Johnson County" }, "geometry": { "type": "Point", "coordinates": [ -97.38426, 32.44132 ] } },
{ "type": "Feature", "properties": { "frs_id": "TXD988040739", "facility_name": "PHILLIPPES COLLISION & SALVAGE CENTER I", "program_system": "rcra_rest_services", "index_right": 0, "id": 544, "survey_name": "Abstract 544 Johnson County" }, "geometry": { "type": "Point", "coordinates": [ -97.379174, 32.237178 ] } },
{ "type": "Feature", "properties": { "frs_id": "TXD981509870", "facility_name": "PHILLIPPES COLLISION REPAIR", "program_system": "rcra_rest_services", "index_right": 0, "id": 544, "survey_name": "Abstract 544 Johnson County" }, "geometry": { "type": "Point", "coordinates": [ -97.37899, 32.23092 ] } },
{ "type": "Feature", "properties": { "frs_id": "TXD007351554", "facility_name": "RANGAIRE INC", "program_system": "rcra_rest_services", "index_right": 0, "id": 544, "survey_name": "Abstract 544 Johnson County" }, "geometry": { "type": "Point", "coordinates": [ -97.38211, 32.34393 ] } },
{ "type": "Feature", "properties": { "frs_id": "TXR000080523", "facility_name": "RED GIANT OIL", "program_system": "rcra_rest_services", "index_right": 0, "id": 544, "survey_name": "Abstract 544 Johnson County" }, "geometry": { "type": "Point", "coordinates": [ -97.439401, 32.414832 ] } },
{ "type": "Feature", "properties": { "frs_id": "TXD981911449", "facility_name": "RONS PAINT & BODY", "program_system": "rcra_rest_services", "index_right": 0, "id": 544, "survey_name": "Abstract 544 Johnson County" }, "geometry": { "type": "Point", "coordinates": [ -97.32673, 32.54329 ] } },
{ "type": "Feature", "properties": { "frs_id": "TXD982291528", "facility_name": "RYDER TRUCK RENTAL INC", "program_system": "rcra_rest_services", "index_right": 0, "id": 544, "survey_name": "Abstract 544 Johnson County" }, "geometry": { "type": "Point", "coordinates": [ -97.384309, 32.429153 ] } },
{ "type": "Feature", "properties": { "frs_id": "TXR000080169", "facility_name": "SABRE GALVANIZING", "program_system": "rcra_rest_services", "index_right": 0, "id": 544, "survey_name": "Abstract 544 Johnson County" }, "geometry": { "type": "Point", "coordinates": [ -97.17451, 32.416127 ] } },
{ "type": "Feature", "properties": { "frs_id": "TXR000079166", "facility_name": "SABRE TUBULAR STRUCTURES", "program_system": "rcra_rest_services", "index_right": 0, "id": 544, "survey_name": "Abstract 544 Johnson County" }, "geometry": { "type": "Point", "coordinates": [ -97.174744, 32.41613 ] } },
{ "type": "Feature", "properties": { "frs_id": "TXD987997335", "facility_name": "SACHEM CLEBURNE FACILITY", "program_system": "rcra_rest_services", "index_right": 0, "id": 544, "survey_name": "Abstract 544 Johnson County" }, "geometry": { "type": "Point", "coordinates": [ -97.39788, 32.38926 ] } },
{ "type": "Feature", "properties": { "frs_id": "TXR000081817", "facility_name": "SAM'S CLUB #8210", "program_system": "rcra_rest_services", "index_right": 0, "id": 544, "survey_name": "Abstract 544 Johnson County" }, "geometry": { "type": "Point", "coordinates": [ -97.318365, 32.554691 ] } },
{ "type": "Feature", "properties": { "frs_id": "TXR000077461", "facility_name": "SCHLUMBERGER TECHNOLOGY", "program_system": "rcra_rest_services", "index_right": 0, "id": 544, "survey_name": "Abstract 544 Johnson County" }, "geometry": { "type": "Point", "coordinates": [ -97.43043, 32.407391 ] } },
{ "type": "Feature", "properties": { "frs_id": "TXD030167472", "facility_name": "SHERWIN WILLIAM", "program_system": "rcra_rest_services", "index_right": 0, "id": 544, "survey_name": "Abstract 544 Johnson County" }, "geometry": { "type": "Point", "coordinates": [ -97.408815, 32.340612 ] } },
{ "type": "Feature", "properties": { "frs_id": "TXD064218340", "facility_name": "SKIPPER B TRAILER CO", "program_system": "rcra_rest_services", "index_right": 0, "id": 544, "survey_name": "Abstract 544 Johnson County" }, "geometry": { "type": "Point", "coordinates": [ -97.426814, 32.471766 ] } },
{ "type": "Feature", "properties": { "frs_id": "TXR000084857", "facility_name": "SOUTHEASTERN FREIGHT LINES", "program_system": "rcra_rest_services", "index_right": 0, "id": 544, "survey_name": "Abstract 544 Johnson County" }, "geometry": { "type": "Point", "coordinates": [ -97.35198, 32.52469 ] } },
{ "type": "Feature", "properties": { "frs_id": "TXD988061214", "facility_name": "SOUTHWEST CUSTOM AIRCRAFT INC", "program_system": "rcra_rest_services", "index_right": 0, "id": 544, "survey_name": "Abstract 544 Johnson County" }, "geometry": { "type": "Point", "coordinates": [ -97.328079, 32.346162 ] } },
{ "type": "Feature", "properties": { "frs_id": "TXD099722621", "facility_name": "SOUTHWESTERN COLORGRAPHICS", "program_system": "rcra_rest_services", "index_right": 0, "id": 544, "survey_name": "Abstract 544 Johnson County" }, "geometry": { "type": "Point", "coordinates": [ -97.32436, 32.397909 ] } },
{ "type": "Feature", "properties": { "frs_id": "TXD074876400", "facility_name": "SOUTHWESTERN DIVERSIFIED", "program_system": "rcra_rest_services", "index_right": 0, "id": 544, "survey_name": "Abstract 544 Johnson County" }, "geometry": { "type": "Point", "coordinates": [ -97.330665, 32.393655 ] } },
{ "type": "Feature", "properties": { "frs_id": "TXR000084581", "facility_name": "SPARKS DRIVE SWD", "program_system": "rcra_rest_services", "index_right": 0, "id": 544, "survey_name": "Abstract 544 Johnson County" }, "geometry": { "type": "Point", "coordinates": [ -97.40373, 32.40101 ] } },
{ "type": "Feature", "properties": { "frs_id": "TXD076697747", "facility_name": "STAR PRINTING CO INC", "program_system": "rcra_rest_services", "index_right": 0, "id": 544, "survey_name": "Abstract 544 Johnson County" }, "geometry": { "type": "Point", "coordinates": [ -97.31756, 32.54835 ] } },
{ "type": "Feature", "properties": { "frs_id": "TXR000085897", "facility_name": "STELLAR COATING", "program_system": "rcra_rest_services", "index_right": 0, "id": 544, "survey_name": "Abstract 544 Johnson County" }, "geometry": { "type": "Point", "coordinates": [ -97.112149, 32.529294 ] } },
{ "type": "Feature", "properties": { "frs_id": "TXR000087315", "facility_name": "SUNBELT INDUSTRIAL SERVICES", "program_system": "rcra_rest_services", "index_right": 0, "id": 544, "survey_name": "Abstract 544 Johnson County" }, "geometry": { "type": "Point", "coordinates": [ -97.158178, 32.516434 ] } },
{ "type": "Feature", "properties": { "frs_id": "TXD039715040", "facility_name": "SUPREME CORP OF TEXAS", "program_system": "rcra_rest_services", "index_right": 0, "id": 544, "survey_name": "Abstract 544 Johnson County" }, "geometry": { "type": "Point", "coordinates": [ -97.39947, 32.39254 ] } },
{ "type": "Feature", "properties": { "frs_id": "TXR000085599", "facility_name": "TACTICAL CLEANING CLEBURNE", "program_system": "rcra_rest_services", "index_right": 0, "id": 544, "survey_name": "Abstract 544 Johnson County" }, "geometry": { "type": "Point", "coordinates": [ -97.380119, 32.356192 ] } },
{ "type": "Feature", "properties": { "frs_id": "TXR000067504", "facility_name": "TARGET STORE T1922", "program_system": "rcra_rest_services", "index_right": 0, "id": 544, "survey_name": "Abstract 544 Johnson County" }, "geometry": { "type": "Point", "coordinates": [ -97.35032, 32.52243 ] } },
{ "type": "Feature", "properties": { "frs_id": "TXR000052191", "facility_name": "TECHNICAL CHEMICAL", "program_system": "rcra_rest_services", "index_right": 0, "id": 544, "survey_name": "Abstract 544 Johnson County" }, "geometry": { "type": "Point", "coordinates": [ -97.40364, 32.40684 ] } },
{ "type": "Feature", "properties": { "frs_id": "TXD096449939", "facility_name": "TECHNICAL CHEMICAL PLANT 2", "program_system": "rcra_rest_services", "index_right": 0, "id": 544, "survey_name": "Abstract 544 Johnson County" }, "geometry": { "type": "Point", "coordinates": [ -97.39565, 32.39251 ] } },
{ "type": "Feature", "properties": { "frs_id": "TXD988056966", "facility_name": "TECHNICAL CHEMICAL SYSTEMS", "program_system": "rcra_rest_services", "index_right": 0, "id": 544, "survey_name": "Abstract 544 Johnson County" }, "geometry": { "type": "Point", "coordinates": [ -97.363008, 32.357698 ] } },
{ "type": "Feature", "properties": { "frs_id": "TXD007328107", "facility_name": "TEXAS BATTERY MANUFACTURING", "program_system": "rcra_rest_services", "index_right": 0, "id": 544, "survey_name": "Abstract 544 Johnson County" }, "geometry": { "type": "Point", "coordinates": [ -97.39998, 32.34327 ] } },
{ "type": "Feature", "properties": { "frs_id": "TXD988043063", "facility_name": "TEXAS DEPARTMENT OF TRANSPORTATION", "program_system": "rcra_rest_services", "index_right": 0, "id": 544, "survey_name": "Abstract 544 Johnson County" }, "geometry": { "type": "Point", "coordinates": [ -97.40596, 32.34141 ] } },
{ "type": "Feature", "properties": { "frs_id": "TXR000004101", "facility_name": "TEXAS DEPT OF TRANSPORTATION", "program_system": "rcra_rest_services", "index_right": 0, "id": 544, "survey_name": "Abstract 544 Johnson County" }, "geometry": { "type": "Point", "coordinates": [ -97.323608, 32.410517 ] } },
{ "type": "Feature", "properties": { "frs_id": "TXD078538121", "facility_name": "TEXAS HEALTH HUGULEY HOSPITAL FT WORTH SOUTH", "program_system": "rcra_rest_services", "index_right": 0, "id": 544, "survey_name": "Abstract 544 Johnson County" }, "geometry": { "type": "Point", "coordinates": [ -97.31909, 32.58567 ] } },
{ "type": "Feature", "properties": { "frs_id": "TXR000086498", "facility_name": "TEXAS TERMINAL", "program_system": "rcra_rest_services", "index_right": 0, "id": 544, "survey_name": "Abstract 544 Johnson County" }, "geometry": { "type": "Point", "coordinates": [ -97.439121, 32.414861 ] } },
{ "type": "Feature", "properties": { "frs_id": "TXP490305959", "facility_name": "TEXAS UTILITIES FUEL CO/JOSHUA SITE", "program_system": "rcra_rest_services", "index_right": 0, "id": 544, "survey_name": "Abstract 544 Johnson County" }, "geometry": { "type": "Point", "coordinates": [ -97.413452, 32.469116 ] } },
{ "type": "Feature", "properties": { "frs_id": "TXD988084042", "facility_name": "THE BODY SHOP", "program_system": "rcra_rest_services", "index_right": 0, "id": 544, "survey_name": "Abstract 544 Johnson County" }, "geometry": { "type": "Point", "coordinates": [ -97.38356, 32.42167 ] } },
{ "type": "Feature", "properties": { "frs_id": "TXR000029371", "facility_name": "THE SHERWIN-WILLIAMS COMPANY", "program_system": "rcra_rest_services", "index_right": 0, "id": 544, "survey_name": "Abstract 544 Johnson County" }, "geometry": { "type": "Point", "coordinates": [ -97.408815, 32.340612 ] } },
{ "type": "Feature", "properties": { "frs_id": "TXD007326713", "facility_name": "THOMAS CONVEYOR", "program_system": "rcra_rest_services", "index_right": 0, "id": 544, "survey_name": "Abstract 544 Johnson County" }, "geometry": { "type": "Point", "coordinates": [ -97.31989, 32.5527 ] } },
{ "type": "Feature", "properties": { "frs_id": "TXR000085727", "facility_name": "TNT RAILCAR SERVICES CLEBURNE", "program_system": "rcra_rest_services", "index_right": 0, "id": 544, "survey_name": "Abstract 544 Johnson County" }, "geometry": { "type": "Point", "coordinates": [ -97.380087, 32.35626 ] } },
{ "type": "Feature", "properties": { "frs_id": "TXR000081862", "facility_name": "TRACTOR SUPPLY #308", "program_system": "rcra_rest_services", "index_right": 0, "id": 544, "survey_name": "Abstract 544 Johnson County" }, "geometry": { "type": "Point", "coordinates": [ -97.33144, 32.54068 ] } },
{ "type": "Feature", "properties": { "frs_id": "TXR000081849", "facility_name": "TRACTOR SUPPLY #460", "program_system": "rcra_rest_services", "index_right": 0, "id": 544, "survey_name": "Abstract 544 Johnson County" }, "geometry": { "type": "Point", "coordinates": [ -97.41285, 32.33868 ] } },
{ "type": "Feature", "properties": { "frs_id": "TXD988086120", "facility_name": "TRIAD TECHNOLOGIES", "program_system": "rcra_rest_services", "index_right": 0, "id": 544, "survey_name": "Abstract 544 Johnson County" }, "geometry": { "type": "Point", "coordinates": [ -97.24164, 32.5704 ] } },
{ "type": "Feature", "properties": { "frs_id": "TXD026142778", "facility_name": "TRIPLETT PAINT & BODY SHOP", "program_system": "rcra_rest_services", "index_right": 0, "id": 544, "survey_name": "Abstract 544 Johnson County" }, "geometry": { "type": "Point", "coordinates": [ -97.381311, 32.396237 ] } },
{ "type": "Feature", "properties": { "frs_id": "TXR000080211", "facility_name": "UNITED AVIATION ACCESORIES, INC.", "program_system": "rcra_rest_services", "index_right": 0, "id": 544, "survey_name": "Abstract 544 Johnson County" }, "geometry": { "type": "Point", "coordinates": [ -97.307942, 32.522549 ] } },
{ "type": "Feature", "properties": { "frs_id": "TXD987981214", "facility_name": "UTP", "program_system": "rcra_rest_services", "index_right": 0, "id": 544, "survey_name": "Abstract 544 Johnson County" }, "geometry": { "type": "Point", "coordinates": [ -97.1501, 32.54531 ] } },
{ "type": "Feature", "properties": { "frs_id": "TXR000004309", "facility_name": "WAL-MART STORES", "program_system": "rcra_rest_services", "index_right": 0, "id": 544, "survey_name": "Abstract 544 Johnson County" }, "geometry": { "type": "Point", "coordinates": [ -97.338083, 32.527845 ] } },
{ "type": "Feature", "properties": { "frs_id": "TXD149970287", "facility_name": "WAL-MART STORES INC", "program_system": "rcra_rest_services", "index_right": 0, "id": 544, "survey_name": "Abstract 544 Johnson County" }, "geometry": { "type": "Point", "coordinates": [ -97.33478, 32.53612 ] } },
{ "type": "Feature", "properties": { "frs_id": "TXR000004291", "facility_name": "WAL-MART SUPERCENTER 0228", "program_system": "rcra_rest_services", "index_right": 0, "id": 544, "survey_name": "Abstract 544 Johnson County" }, "geometry": { "type": "Point", "coordinates": [ -97.41345, 32.33844 ] } },
{ "type": "Feature", "properties": { "frs_id": "TXD131020976", "facility_name": "WALLS REGIONAL HOSPITAL", "program_system": "rcra_rest_services", "index_right": 0, "id": 544, "survey_name": "Abstract 544 Johnson County" }, "geometry": { "type": "Point", "coordinates": [ -97.43763, 32.33105 ] } },
{ "type": "Feature", "properties": { "frs_id": "TXR000080219", "facility_name": "WALMART DISTRIBUTION CENTER 6064", "program_system": "rcra_rest_services", "index_right": 0, "id": 544, "survey_name": "Abstract 544 Johnson County" }, "geometry": { "type": "Point", "coordinates": [ -97.426757, 32.404603 ] } },
{ "type": "Feature", "properties": { "frs_id": "TXR000082551", "facility_name": "WALMART NEIGHBORHOOD MARKET #3653", "program_system": "rcra_rest_services", "index_right": 0, "id": 544, "survey_name": "Abstract 544 Johnson County" }, "geometry": { "type": "Point", "coordinates": [ -97.360299, 32.538534 ] } },
{ "type": "Feature", "properties": { "frs_id": "TXR000080513", "facility_name": "WALMART SUPERCENTER 3631", "program_system": "rcra_rest_services", "index_right": 0, "id": 544, "survey_name": "Abstract 544 Johnson County" }, "geometry": { "type": "Point", "coordinates": [ -97.3389, 32.574453 ] } },
{ "type": "Feature", "properties": { "frs_id": "TXD000018168", "facility_name": "WESCO FOUNDRY SUPPLY INC", "program_system": "rcra_rest_services", "index_right": 0, "id": 544, "survey_name": "Abstract 544 Johnson County" }, "geometry": { "type": "Point", "coordinates": [ -97.306547, 32.532677 ] } },
{ "type": "Feature", "properties": { "frs_id": "TXR000066027", "facility_name": "WILCOAT PAINTING SPECIALISTS", "program_system": "rcra_rest_services", "index_right": 0, "id": 544, "survey_name": "Abstract 544 Johnson County" }, "geometry": { "type": "Point", "coordinates": [ -97.379638, 32.500273 ] } },
{ "type": "Feature", "properties": { "frs_id": "TXD026140939", "facility_name": "WRIGHT LINCOLN MERCURY", "program_system": "rcra_rest_services", "index_right": 0, "id": 544, "survey_name": "Abstract 544 Johnson County" }, "geometry": { "type": "Point", "coordinates": [ -97.39515, 32.37303 ] } }
]
}
